{"type": "FeatureCollection", "features": [ {"type": "Feature", "properties": {"norad_id": 66432, "name": "STARLINK-35446", "group": "last-30-days", "lat": -15.017241408197313, "lon": -109.99997585517866, "alt_km": 445.4679422187046, "timestamp": "2025-12-11T18:59:44.809066+00:00", "meta": {"OBJECT_NAME": "STARLINK-35446", "OBJECT_ID": "2025-259L", "EPOCH": "2025-12-11T00:00:02.999808", "MEAN_MOTION": 15.40743077, "ECCENTRICITY": 0.00013461, "INCLINATION": 43.0003, "RA_OF_ASC_NODE": 57.83, "ARG_OF_PERICENTER": 252.2205, "MEAN_ANOMALY": 235.174, "EPHEMERIS_TYPE": 0, "CLASSIFICATION_TYPE": "U", "NORAD_CAT_ID": 66432, "ELEMENT_SET_NO": 999, "REV_AT_EPOCH": 600, "BSTAR": -0.0030952621, "MEAN_MOTION_DOT": -0.00127643, "MEAN_MOTION_DDOT": 0}, "tle": {"line1": "1 66432U 25259L   25345.00003472 -.00127643  00000+0 -30953-2 0  9995", "line2": "2 66432  43.0003  57.8300 0001346 252.2205 235.1740 15.40743077  6004"}}, "geometry": {"type": "Point", "coordinates": [-109.99997585517866, -15.017241408197313]}}, {"type": "Feature", "properties": {"norad_id": 66433, "name": "STARLINK-35457", "group": "last-30-days", "lat": -22.954635351019043, "lon": -99.72557348307775, "alt_km": 445.6640323645861, "timestamp": "2025-12-11T18:59:44.809077+00:00", "meta": {"OBJECT_NAME": "STARLINK-35457", "OBJECT_ID": "2025-259M", "EPOCH": "2025-12-11T06:00:02.999808", "MEAN_MOTION": 15.40666271, "ECCENTRICITY": 0.00012903, "INCLINATION": 42.9998, "RA_OF_ASC_NODE": 56.3613, "ARG_OF_PERICENTER": 246.8532, "MEAN_ANOMALY": 201.2897, "EPHEMERIS_TYPE": 0, "CLASSIFICATION_TYPE": "U", "NORAD_CAT_ID": 66433, "ELEMENT_SET_NO": 999, "REV_AT_EPOCH": 604, "BSTAR": -0.00029310557, "MEAN_MOTION_DOT": -0.00012513, "MEAN_MOTION_DDOT": 0}, "tle": {"line1": "1 66433U 25259M   25345.25003472 -.00012513  00000+0 -29311-3 0  9999", "line2": "2 66433  42.9998  56.3613 0001290 246.8532 201.2897 15.40666271  6048"}}, "geometry": {"type": "Point", "coordinates": [-99.72557348307775, -22.954635351019043]}}, {"type": "Feature", "properties": {"norad_id": 66434, "name": "STARLINK-35389", "group": "last-30-days", "lat": -30.080527985330704, "lon": -88.35611216414866, "alt_km": 446.2738392575402, "timestamp": "2025-12-11T18:59:44.809088+00:00", "meta": {"OBJECT_NAME": "STARLINK-35389", "OBJECT_ID": "2025-259N", "EPOCH": "2025-12-11T08:00:01.999872", "MEAN_MOTION": 15.40696845, "ECCENTRICITY": 0.00013109, "INCLINATION": 42.9998, "RA_OF_ASC_NODE": 55.8522, "ARG_OF_PERICENTER": 267.2304, "MEAN_ANOMALY": 296.0245, "EPHEMERIS_TYPE": 0, "CLASSIFICATION_TYPE": "U", "NORAD_CAT_ID": 66434, "ELEMENT_SET_NO": 999, "REV_AT_EPOCH": 605, "BSTAR": -0.0014916975, "MEAN_MOTION_DOT": -0.00062103, "MEAN_MOTION_DDOT": 0}, "tle": {"line1": "1 66434U 25259N   25345.33335648 -.00062103  00000+0 -14917-2 0  9997", "line2": "2 66434  42.9998  55.8522 0001310 267.2304 296.0245 15.40696845  6059"}}, "geometry": {"type": "Point", "coordinates": [-88.35611216414866, -30.080527985330704]}}, {"type": "Feature", "properties": {"norad_id": 66435, "name": "STARLINK-35502", "group": "last-30-days", "lat": -36.077992101386755, "lon": -75.38176330040349, "alt_km": 446.75678734611483, "timestamp": "2025-12-11T18:59:44.809100+00:00", "meta": {"OBJECT_NAME": "STARLINK-35502", "OBJECT_ID": "2025-259P", "EPOCH": "2025-12-11T08:00:01.999872", "MEAN_MOTION": 15.40689555, "ECCENTRICITY": 8.886e-05, "INCLINATION": 42.9997, "RA_OF_ASC_NODE": 55.8224, "ARG_OF_PERICENTER": 270.0342, "MEAN_ANOMALY": 305.6553, "EPHEMERIS_TYPE": 0, "CLASSIFICATION_TYPE": "U", "NORAD_CAT_ID": 66435, "ELEMENT_SET_NO": 999, "REV_AT_EPOCH": 605, "BSTAR": -0.0011781091, "MEAN_MOTION_DOT": -0.00049181, "MEAN_MOTION_DDOT": 0}, "tle": {"line1": "1 66435U 25259P   25345.33335648 -.00049181  00000+0 -11781-2 0  9995", "line2": "2 66435  42.9997  55.8224 0000888 270.0342 305.6553 15.40689555  6050"}}, "geometry": {"type": "Point", "coordinates": [-75.38176330040349, -36.077992101386755]}}, {"type": "Feature", "properties": {"norad_id": 66436, "name": "STARLINK-35501", "group": "last-30-days", "lat": -42.74323587707537, "lon": -44.241922797183506, "alt_km": 446.7155344886687, "timestamp": "2025-12-11T18:59:44.809111+00:00", "meta": {"OBJECT_NAME": "STARLINK-35501", "OBJECT_ID": "2025-259Q", "EPOCH": "2025-12-11T06:00:02.999808", "MEAN_MOTION": 15.40668549, "ECCENTRICITY": 0.00012592, "INCLINATION": 42.9999, "RA_OF_ASC_NODE": 56.2395, "ARG_OF_PERICENTER": 246.002, "MEAN_ANOMALY": 251.8974, "EPHEMERIS_TYPE": 0, "CLASSIFICATION_TYPE": "U", "NORAD_CAT_ID": 66436, "ELEMENT_SET_NO": 999, "REV_AT_EPOCH": 604, "BSTAR": -0.00034621122, "MEAN_MOTION_DOT": -0.00014722, "MEAN_MOTION_DDOT": 0}, "tle": {"line1": "1 66436U 25259Q   25345.25003472 -.00014722  00000+0 -34621-3 0  9996", "line2": "2 66436  42.9999  56.2395 0001259 246.0020 251.8974 15.40668549  6044"}}, "geometry": {"type": "Point", "coordinates": [-44.241922797183506, -42.74323587707537]}}, {"type": "Feature", "properties": {"norad_id": 66437, "name": "STARLINK-35474", "group": "last-30-days", "lat": -42.58014754092438, "lon": -27.350032605516436, "alt_km": 446.5388099317861, "timestamp": "2025-12-11T18:59:44.809123+00:00", "meta": {"OBJECT_NAME": "STARLINK-35474", "OBJECT_ID": "2025-259R", "EPOCH": "2025-12-11T06:00:02.999808", "MEAN_MOTION": 15.40674528, "ECCENTRICITY": 0.0001538, "INCLINATION": 43, "RA_OF_ASC_NODE": 56.209, "ARG_OF_PERICENTER": 257.4232, "MEAN_ANOMALY": 252.9168, "EPHEMERIS_TYPE": 0, "CLASSIFICATION_TYPE": "U", "NORAD_CAT_ID": 66437, "ELEMENT_SET_NO": 999, "REV_AT_EPOCH": 604, "BSTAR": -0.0005530855, "MEAN_MOTION_DOT": -0.00023317, "MEAN_MOTION_DDOT": 0}, "tle": {"line1": "1 66437U 25259R   25345.25003472 -.00023317  00000+0 -55309-3 0  9993", "line2": "2 66437  43.0000  56.2090 0001538 257.4232 252.9168 15.40674528  6044"}}, "geometry": {"type": "Point", "coordinates": [-27.350032605516436, -42.58014754092438]}}, {"type": "Feature", "properties": {"norad_id": 66438, "name": "STARLINK-34681", "group": "last-30-days", "lat": -40.004176801480895, "lon": -11.177495957372898, "alt_km": 446.820987721283, "timestamp": "2025-12-11T18:59:44.809133+00:00", "meta": {"OBJECT_NAME": "STARLINK-34681", "OBJECT_ID": "2025-259S", "EPOCH": "2025-12-11T06:00:02.999808", "MEAN_MOTION": 15.40609017, "ECCENTRICITY": 8.468e-05, "INCLINATION": 43.0001, "RA_OF_ASC_NODE": 56.1793, "ARG_OF_PERICENTER": 257.9333, "MEAN_ANOMALY": 264.8723, "EPHEMERIS_TYPE": 0, "CLASSIFICATION_TYPE": "U", "NORAD_CAT_ID": 66438, "ELEMENT_SET_NO": 999, "REV_AT_EPOCH": 593, "BSTAR": 0.0018202185, "MEAN_MOTION_DOT": 0.00076263, "MEAN_MOTION_DDOT": 0}, "tle": {"line1": "1 66438U 25259S   25345.25003472  .00076263  00000+0  18202-2 0  9990", "line2": "2 66438  43.0001  56.1793 0000846 257.9333 264.8723 15.40609017  5930"}}, "geometry": {"type": "Point", "coordinates": [-11.177495957372898, -40.004176801480895]}}, {"type": "Feature", "properties": {"norad_id": 66439, "name": "STARLINK-35327", "group": "last-30-days", "lat": -40.46732532361841, "lon": -60.573784522687866, "alt_km": 446.7005729204475, "timestamp": "2025-12-11T18:59:44.809147+00:00", "meta": {"OBJECT_NAME": "STARLINK-35327", "OBJECT_ID": "2025-259T", "EPOCH": "2025-12-11T06:00:02.999808", "MEAN_MOTION": 15.40676886, "ECCENTRICITY": 0.00011044, "INCLINATION": 42.9998, "RA_OF_ASC_NODE": 56.2719, "ARG_OF_PERICENTER": 244.7311, "MEAN_ANOMALY": 240.7195, "EPHEMERIS_TYPE": 0, "CLASSIFICATION_TYPE": "U", "NORAD_CAT_ID": 66439, "ELEMENT_SET_NO": 999, "REV_AT_EPOCH": 604, "BSTAR": -0.00055674495, "MEAN_MOTION_DOT": -0.0002347, "MEAN_MOTION_DDOT": 0}, "tle": {"line1": "1 66439U 25259T   25345.25003472 -.00023470  00000+0 -55674-3 0  9990", "line2": "2 66439  42.9998  56.2719 0001104 244.7311 240.7195 15.40676886  6048"}}, "geometry": {"type": "Point", "coordinates": [-60.573784522687866, -40.46732532361841]}}, {"type": "Feature", "properties": {"norad_id": 66440, "name": "STARLINK-35405", "group": "last-30-days", "lat": -35.377478094367135, "lon": 3.3891435995696613, "alt_km": 446.5972069152058, "timestamp": "2025-12-11T18:59:44.809158+00:00", "meta": {"OBJECT_NAME": "STARLINK-35405", "OBJECT_ID": "2025-259U", "EPOCH": "2025-12-11T06:00:02.999808", "MEAN_MOTION": 15.40653304, "ECCENTRICITY": 0.00014321, "INCLINATION": 43.0002, "RA_OF_ASC_NODE": 56.1501, "ARG_OF_PERICENTER": 247.0963, "MEAN_ANOMALY": 288.137, "EPHEMERIS_TYPE": 0, "CLASSIFICATION_TYPE": "U", "NORAD_CAT_ID": 66440, "ELEMENT_SET_NO": 999, "REV_AT_EPOCH": 604, "BSTAR": -3.6018446e-05, "MEAN_MOTION_DOT": -1.805e-05, "MEAN_MOTION_DDOT": 0}, "tle": {"line1": "1 66440U 25259U   25345.25003472 -.00001805  00000+0 -36018-4 0  9992", "line2": "2 66440  43.0002  56.1501 0001432 247.0963 288.1370 15.40653304  6040"}}, "geometry": {"type": "Point", "coordinates": [3.3891435995696613, -35.377478094367135]}}, {"type": "Feature", "properties": {"norad_id": 66441, "name": "STARLINK-35426", "group": "last-30-days", "lat": -29.21214673302113, "lon": 16.125193474923364, "alt_km": 446.17826316937953, "timestamp": "2025-12-11T18:59:44.809169+00:00", "meta": {"OBJECT_NAME": "STARLINK-35426", "OBJECT_ID": "2025-259V", "EPOCH": "2025-12-11T06:00:02.999808", "MEAN_MOTION": 15.40686527, "ECCENTRICITY": 0.00012434, "INCLINATION": 43.0002, "RA_OF_ASC_NODE": 56.1192, "ARG_OF_PERICENTER": 270.0119, "MEAN_ANOMALY": 277.615, "EPHEMERIS_TYPE": 0, "CLASSIFICATION_TYPE": "U", "NORAD_CAT_ID": 66441, "ELEMENT_SET_NO": 999, "REV_AT_EPOCH": 604, "BSTAR": -0.00064026347, "MEAN_MOTION_DOT": -0.00026942, "MEAN_MOTION_DDOT": 0}, "tle": {"line1": "1 66441U 25259V   25345.25003472 -.00026942  00000+0 -64026-3 0  9991", "line2": "2 66441  43.0002  56.1192 0001243 270.0119 277.6150 15.40686527  6048"}}, "geometry": {"type": "Point", "coordinates": [16.125193474923364, -29.21214673302113]}}]}